{"fetched_at":"2026-03-29T16:36:15Z","count":15609,"tles":[{"name":"STARLINK-35939","line1":"1 66584U 25268AD  26087.71422137  .00035027  00000+0  12758-2 0  9993","line2":"2 66584  43.0003 239.2398 0001837 266.2252  93.8390 15.27592471 20873","category":"Starlink"}]}